OBJECT_NAME,OBJECT_ID,EPOCH,MEAN_MOTION,ECCENTRICITY,INCLINATION,RA_OF_ASC_NODE,ARG_OF_PERICENTER,MEAN_ANOMALY,EPHEMERIS_TYPE,CLASSIFICATION_TYPE,NORAD_CAT_ID,ELEMENT_SET_NO,REV_AT_EPOCH,BSTAR,MEAN_MOTION_DOT,MEAN_MOTION_DDOT
SXM-8,2021-049A,2024-07-02T07:25:20.547840,1.00271884,.0005202,0.0120,17.2243,16.8078,272.9593,0,U,48838,999,1145,0,-.203E-5,0
TIANLIAN 1-05,2021-063A,2024-07-07T08:07:27.573312,1.00272309,.0002413,0.2542,285.8436,203.4263,295.1665,0,U,49011,999,1096,0,.104E-5,0
STAR ONE D2,2021-069A,2024-07-05T06:27:42.666912,1.00267685,.0002466,0.0165,27.8983,104.3705,178.3309,0,U,49055,999,1079,0,-.267E-5,0
EUTELSAT QUANTUM,2021-069B,2024-07-07T11:42:03.034368,1.00270691,.0002154,0.0267,312.8730,154.0730,42.1751,0,U,49056,999,1081,0,.122E-5,0
ZHONGXING-2E,2021-071A,2024-07-07T20:46:42.669696,1.00273334,.0001383,0.0163,129.4856,24.3360,182.2061,0,U,49062,999,1092,0,-.295E-5,0
TJS-7,2021-077A,2024-07-07T11:05:02.676192,1.00272700,.0001168,0.3628,86.3778,46.7663,219.5742,0,U,49115,999,245,0,-.128E-5,0
CHINASAT 9B,2021-080A,2024-07-07T13:42:42.443712,1.00273716,.0002436,0.0205,81.2031,52.1539,99.7331,0,U,49125,999,1053,0,-.317E-5,0
SHIJIAN-21 (SJ-21),2021-094A,2024-07-07T13:32:43.766016,1.00307710,.0079782,9.8485,45.1155,33.8415,192.1091,0,U,49330,999,1014,0,-.278E-5,0
SES-17,2021-095A,2024-07-07T12:52:36.565248,1.00268908,.0000808,0.0143,29.7127,77.7492,304.5607,0,U,49332,999,1072,0,-.275E-5,0
SYRACUSE 4A,2021-095B,2024-07-07T20:17:04.124832,1.00274245,.0001723,0.0189,48.9305,58.5133,168.6018,0,U,49333,999,1087,0,.132E-5,0
QZS-1R,2021-096A,2024-07-06T15:19:27.608736,1.00252391,.0757361,35.9831,90.2329,271.8947,285.7525,0,U,49336,999,988,0,-.316E-5,0
ZHONGXING-1D,2021-114A,2024-07-07T21:31:29.366688,1.00273486,.0001187,0.0591,226.8081,9.3360,143.2232,0,U,49505,999,971,0,-.339E-5,0
STPSAT-6,2021-118A,2024-07-07T14:22:56.351712,1.00271779,.0000103,0.0176,302.0154,84.7538,3.3372,0,U,49817,999,946,0,-.49E-6,0
LDPE-1,2021-118B,2024-07-07T17:36:00.849888,0.99883428,.0005346,2.3285,87.8523,55.4954,249.8755,0,U,49818,999,951,0,.106E-5,0
EXPRESS AMU-7,2021-123A,2024-07-07T19:15:17.590752,1.00271857,.0000318,0.0184,355.3321,355.1729,9.4945,0,U,50001,999,942,0,-.246E-5,0
EXPRESS AMU-3,2021-123B,2024-07-07T22:02:59.431488,1.00269402,.000021,0.0197,27.3381,0.5225,332.1405,0,U,50002,999,939,0,-.324E-5,0
TIANLIAN 2-02,2021-124A,2024-07-07T21:04:42.724128,1.00272098,.0000682,0.6190,273.5678,182.1712,317.7199,0,U,50005,999,949,0,-.17E-6,0
TURKSAT 5B,2021-126A,2024-07-07T03:05:38.891904,1.00273059,.000283,0.0640,350.6714,7.3998,15.9236,0,U,50212,999,917,0,.142E-5,0
INMARSAT 6-F1,2021-128A,2024-07-07T20:54:42.790176,1.00272070,.0000184,0.0130,330.0484,278.3961,75.2927,0,U,50319,999,912,0,-.175E-5,0
SHIYAN 12 01 (SY-12 01),2021-129A,2024-07-07T10:39:39.786336,1.00444682,.0001868,1.8363,90.5918,79.0080,53.6060,0,U,50321,999,938,0,-.275E-5,0
SHIYAN 12 02 (SY-12 02),2021-129B,2024-07-07T13:45:54.834048,1.00086341,.0001327,1.8357,90.5992,157.8219,2.9467,0,U,50322,999,938,0,-.362E-5,0
TJS-9,2021-135A,2024-07-07T19:00:04.410144,1.00271740,.0004756,0.0727,256.1644,253.9691,198.3471,0,U,50574,999,934,0,-.302E-5,0
USA 324,2022-006A,2024-07-06T07:01:52.277952,1.00106144,.0005868,1.7875,88.2496,82.0167,16.3134,0,U,51280,999,900,0,-.183E-5,0
USA 325,2022-006B,2024-07-06T08:26:55.149216,1.00374250,.0000859,0.3795,86.1722,133.2264,285.5104,0,U,51281,999,27,0,-.279E-5,0
GOES 18,2022-021A,2024-07-07T15:58:45.084576,1.00273084,.0000257,0.0167,209.8791,306.5814,232.3208,0,U,51850,999,869,0,.93E-6,0
ZHONGXING-6D,2022-038A,2024-07-07T20:34:57.555840,1.00268653,.0000465,0.0093,12.5350,192.5509,154.9118,0,U,52255,999,833,0,-.357E-5,0
NILESAT 301,2022-061A,2024-07-07T20:02:06.192096,1.00272236,.0003827,0.0466,16.1170,54.2264,149.4376,0,U,52817,999,761,0,-.61E-6,0
CMS-02 (GSAT 24),2022-067A,2024-07-07T10:09:37.592928,1.00272273,.0008183,0.0541,253.0754,200.5387,67.6889,0,U,52903,999,749,0,-.169E-5,0
MEASAT 3D,2022-067B,2024-07-07T10:12:00.449280,1.00272016,.0000785,0.0306,337.8737,38.9917,153.5085,0,U,52904,999,753,0,-.246E-5,0
SES-22,2022-071A,2024-07-07T17:41:09.119040,1.00270021,.0000041,0.0358,281.0270,261.2792,230.1679,0,U,52933,999,745,0,.101E-5,0
WFOV (USA 332),2022-073A,2024-07-07T20:38:07.276416,1.00270777,.0001441,1.8785,87.9352,312.8125,314.3850,0,U,52940,999,725,0,-.367E-5,0
TIANLIAN 2-03,2022-078A,2024-07-06T22:55:22.152000,1.00272308,.0002281,1.1767,278.5525,179.0662,182.1793,0,U,53100,999,743,0,.69E-6,0
