SXM-8                   
1 48838U 21049A   24184.30926560 -.00000203  00000+0  00000+0 0  9991
2 48838   0.0120  17.2243 0005202  16.8078 272.9593  1.00271884 11453
TIANLIAN 1-05           
1 49011U 21063A   24189.33851358  .00000104  00000+0  00000+0 0  9990
2 49011   0.2542 285.8436 0002413 203.4263 295.1665  1.00272309 10960
STAR ONE D2             
1 49055U 21069A   24187.26924383 -.00000267  00000+0  00000+0 0  9994
2 49055   0.0165  27.8983 0002466 104.3705 178.3309  1.00267685 10795
EUTELSAT QUANTUM        
1 49056U 21069B   24189.48753512  .00000122  00000+0  00000+0 0  9994
2 49056   0.0267 312.8730 0002154 154.0730  42.1751  1.00270691 10813
ZHONGXING-2E            
1 49062U 21071A   24189.86577164 -.00000295  00000+0  00000+0 0  9995
2 49062   0.0163 129.4856 0001383  24.3360 182.2061  1.00273334 10926
TJS-7                   
1 49115U 21077A   24189.46183653 -.00000128  00000+0  00000+0 0  9997
2 49115   0.3628  86.3778 0001168  46.7663 219.5742  1.00272700  2458
CHINASAT 9B             
1 49125U 21080A   24189.57132458 -.00000317  00000+0  00000+0 0  9991
2 49125   0.0205  81.2031 0002436  52.1539  99.7331  1.00273716 10533
SHIJIAN-21 (SJ-21)      
1 49330U 21094A   24189.56439544 -.00000278  00000+0  00000+0 0  9995
2 49330   9.8485  45.1155 0079782  33.8415 192.1091  1.00307710 10141
SES-17                  
1 49332U 21095A   24189.53653432 -.00000275  00000+0  00000+0 0  9996
2 49332   0.0143  29.7127 0000808  77.7492 304.5607  1.00268908 10720
SYRACUSE 4A             
1 49333U 21095B   24189.84518663  .00000132  00000+0  00000+0 0  9998
2 49333   0.0189  48.9305 0001723  58.5133 168.6018  1.00274245 10870
QZS-1R                  
1 49336U 21096A   24188.63851399 -.00000316  00000+0  00000+0 0  9999
2 49336  35.9831  90.2329 0757361 271.8947 285.7525  1.00252391  9880
ZHONGXING-1D            
1 49505U 21114A   24189.89686767 -.00000339  00000+0  00000+0 0  9997
2 49505   0.0591 226.8081 0001187   9.3360 143.2232  1.00273486  9710
STPSAT-6                
1 49817U 21118A   24189.59926333 -.00000049  00000+0  00000+0 0  9998
2 49817   0.0176 302.0154 0000103  84.7538   3.3372  1.00271779  9460
LDPE-1                  
1 49818U 21118B   24189.73334317  .00000106  00000+0  00000+0 0  9993
2 49818   2.3285  87.8523 0005346  55.4954 249.8755  0.99883428  9511
EXPRESS AMU-7           
1 50001U 21123A   24189.80228693 -.00000246  00000+0  00000+0 0  9998
2 50001   0.0184 355.3321 0000318 355.1729   9.4945  1.00271857  9424
EXPRESS AMU-3           
1 50002U 21123B   24189.91874342 -.00000324  00000+0  00000+0 0  9996
2 50002   0.0197  27.3381 0000210   0.5225 332.1405  1.00269402  9390
TIANLIAN 2-02           
1 50005U 21124A   24189.87827227 -.00000017  00000+0  00000+0 0  9994
2 50005   0.6190 273.5678 0000682 182.1712 317.7199  1.00272098  9492
TURKSAT 5B              
1 50212U 21126A   24189.12892236  .00000142  00000+0  00000+0 0  9994
2 50212   0.0640 350.6714 0002830   7.3998  15.9236  1.00273059  9177
INMARSAT 6-F1           
1 50319U 21128A   24189.87132859 -.00000175  00000+0  00000+0 0  9991
2 50319   0.0130 330.0484 0000184 278.3961  75.2927  1.00272070  9128
SHIYAN 12 01 (SY-12 01) 
1 50321U 21129A   24189.44421049 -.00000275  00000+0  00000+0 0  9991
2 50321   1.8363  90.5918 0001868  79.0080  53.6060  1.00444682  9382
SHIYAN 12 02 (SY-12 02) 
1 50322U 21129B   24189.57355132 -.00000362  00000+0  00000+0 0  9992
2 50322   1.8357  90.5992 0001327 157.8219   2.9467  1.00086341  9389
TJS-9                   
1 50574U 21135A   24189.79171771 -.00000302  00000+0  00000+0 0  9991
2 50574   0.0727 256.1644 0004756 253.9691 198.3471  1.00271740  9345
USA 324                 
1 51280U 22006A   24188.29296618 -.00000183  00000+0  00000+0 0  9993
2 51280   1.7875  88.2496 0005868  82.0167  16.3134  1.00106144  9008
USA 325                 
1 51281U 22006B   24188.35202719 -.00000279  00000+0  00000+0 0  9996
2 51281   0.3795  86.1722 0000859 133.2264 285.5104  1.00374250   278
GOES 18                 
1 51850U 22021A   24189.66579959  .00000093  00000+0  00000+0 0  9996
2 51850   0.0167 209.8791 0000257 306.5814 232.3208  1.00273084  8690
ZHONGXING-6D            
1 52255U 22038A   24189.85761060 -.00000357  00000+0  00000+0 0  9995
2 52255   0.0093  12.5350 0000465 192.5509 154.9118  1.00268653  8339
NILESAT 301             
1 52817U 22061A   24189.83479389 -.00000061  00000+0  00000+0 0  9995
2 52817   0.0466  16.1170 0003827  54.2264 149.4376  1.00272236  7611
CMS-02 (GSAT 24)        
1 52903U 22067A   24189.42335177 -.00000169  00000+0  00000+0 0  9997
2 52903   0.0541 253.0754 0008183 200.5387  67.6889  1.00272273  7490
MEASAT 3D               
1 52904U 22067B   24189.42500520 -.00000246  00000+0  00000+0 0  9990
2 52904   0.0306 337.8737 0000785  38.9917 153.5085  1.00272016  7537
SES-22                  
1 52933U 22071A   24189.73691110  .00000101  00000+0  00000+0 0  9996
2 52933   0.0358 281.0270 0000041 261.2792 230.1679  1.00270021  7451
WFOV (USA 332)          
1 52940U 22073A   24189.85980644 -.00000367  00000+0  00000+0 0  9997
2 52940   1.8785  87.9352 0001441 312.8125 314.3850  1.00270777  7256
TIANLIAN 2-03           
1 53100U 22078A   24188.95511750  .00000069  00000+0  00000+0 0  9997
2 53100   1.1767 278.5525 0002281 179.0662 182.1793  1.00272308  7439
